[{"OBJECT_NAME":"STARLINK-3178","OBJECT_ID":"2022-010M","EPOCH":"2026-03-09T20:51:43.173216","MEAN_MOTION":15.08831514,"ECCENTRICITY":0.00012524,"INCLINATION":53.2164,"RA_OF_ASC_NODE":278.3148,"ARG_OF_PERICENTER":85.3546,"MEAN_ANOMALY":274.7589,"EPHEMERIS_TYPE":0,"CLASSIFICATION_TYPE":"U","NORAD_CAT_ID":51467,"ELEMENT_SET_NO":999,"REV_AT_EPOCH":22654,"BSTAR":-0.00012084635,"MEAN_MOTION_DOT":-2.21e-5,"MEAN_MOTION_DDOT":0},{"OBJECT_NAME":"DELTA 1 DEB","OBJECT_ID":"1977-065FJ","EPOCH":"2026-03-09T02:59:41.576928","MEAN_MOTION":13.94627444,"ECCENTRICITY":0.05598795,"INCLINATION":28.9482,"RA_OF_ASC_NODE":40.0811,"ARG_OF_PERICENTER":161.2588,"MEAN_ANOMALY":200.9498,"EPHEMERIS_TYPE":0,"CLASSIFICATION_TYPE":"U","NORAD_CAT_ID":14493,"ELEMENT_SET_NO":999,"REV_AT_EPOCH":21829,"BSTAR":0.00040569536,"MEAN_MOTION_DOT":2.247e-5,"MEAN_MOTION_DDOT":0}]
